1 37753U 11036A   21001.01735461 -.00000045  00000-0  00000-0 0  9997
2 37753  56.3085  49.5091 0100351  46.1469 315.1589  2.00561837 69304
1 37753U 11036A   21004.01688458 -.00000049  00000-0  00000+0 0  9996
2 37753  56.3105  49.3911 0100433  46.1247 320.9623  2.00561782 69358
1 37753U 11036A   21004.50327285 -.00000051  00000-0  00000-0 0  9992
2 37753  56.3109  49.3720 0100448  46.1212 312.1578  2.00561776 69364
1 37753U 11036A   21005.50364139 -.00000054  00000-0  00000-0 0  9995
2 37753  56.3116  49.3327 0100479  46.1136 314.4717  2.00561769 69388
1 37753U 11036A   21006.09650694 -.00000056  00000-0  00000-0 0  9996
2 37753  56.3121  49.3094 0100498  46.1082  22.5501  2.00561768 69406
1 37753U 11036A   21006.50245633 -.00000057  00000-0  00000-0 0  9996
2 37753  56.3125  49.2934 0100498  46.0968 315.6730  2.00561767 69414
1 37753U 11036A   21009.98988447 -.00000059  00000-0  00000+0 0  9999
2 37753  56.3157  49.1563 0100617  46.0733 313.7601  2.00561806 69475
1 37753U 11036A   21009.98988447 -.00000059  00000-0  00000-0 0  9990
2 37753  56.3157  49.1563 0100617  46.0733 313.7601  2.00561806 69475
1 37753U 11036A   21012.23314682 -.00000061  00000-0  00000+0 0  9998
2 37753  56.3173  49.0681 0100719  46.0808 133.4793  2.00561871 69515
1 37753U 11036A   21012.47896450 -.00000062  00000-0  00000-0 0  9994
2 37753  56.3174  49.0584 0100724  46.0794 310.9709  2.00561879 69526
1 37753U 11036A   21013.07092160 -.00000063  00000-0  00000-0 0  9998
2 37753  56.3174  49.0352 0100750  46.0735  18.3939  2.00561901 69545
1 37753U 11036A   21014.47619742 -.00000069  00000-0  00000-0 0  9990
2 37753  56.3186  48.9799 0100800  46.0657 313.0679  2.00561953 69565
1 37753U 11036A   21015.48120411 -.00000073  00000-0  00000-0 0  9997
2 37753  56.3193  48.9404 0100827  46.0646 318.7247  2.00561998 69598
1 37753U 11036A   21016.71933351 -.00000076  00000-0  00000-0 0  9992
2 37753  56.3201  48.8917 0100891  46.0505 132.7187  2.00562043 69613
1 37753U 11036A   21017.02724646 -.00000077  00000-0  00000-0 0  9993
2 37753  56.3204  48.8796 0100904  46.0463 355.0486  2.00562055 69625
1 37753U 11036A   21018.05352444 -.00000078  00000-0  00000-0 0  9991
2 37753  56.3205  48.8393 0100956  46.0364  16.0732  2.00562092 69647
1 37753U 11036A   21018.96230780 -.00000077  00000-0  00000-0 0  9998
2 37753  56.3211  48.8036 0100993  46.0299 312.2583  2.00562121 69655
1 37753U 11036A   21019.96727405 -.00000073  00000-0  00000-0 0  9990
2 37753  56.3218  48.7642 0101040  46.0232 317.8918  2.00562147 69689
1 37753U 11036A   21021.20555503 -.00000066  00000-0  00000-0 0  9990
2 37753  56.3227  48.7156 0101085  46.0207 131.9840  2.00562173 69701
1 37753U 11036A   21023.44854175 -.00000050  00000-0  00000-0 0  9998
2 37753  56.3242  48.6275 0101176  46.0029 311.5302  2.00562190 69744
1 37753U 11036A   21024.45358137 -.00000043  00000-0  00000-0 0  9999
2 37753  56.3249  48.5880 0101218  45.9961 317.2169  2.00562184 69772
1 37753U 11036A   21025.69186852 -.00000036  00000-0  00000+0 0  9990
2 37753  56.3257  48.5394 0101263  45.9935 131.3139  2.00562167 69786
1 37753U 11036A   21025.69186852 -.00000036  00000-0  00000-0 0  9991
2 37753  56.3257  48.5394 0101263  45.9935 131.3139  2.00562167 69797
1 37753U 11036A   21026.69678354 -.00000031  00000-0  00000-0 0  9990
2 37753  56.3264  48.4999 0101303  45.9933 136.9040  2.00562150 69815
1 37753U 11036A   21028.93976076 -.00000028  00000-0  00000+0 0  9996
2 37753  56.3279  48.4118 0101410  45.9801 316.4389  2.00562102 69859
1 37753U 11036A   21028.93976076 -.00000028  00000-0  00000-0 0  9997
2 37753  56.3279  48.4118 0101410  45.9801 316.4389  2.00562102 69860
1 37753U 11036A   21031.68276536 -.00000033  00000-0  00000-0 0  9993
2 37753  56.3298  48.3041 0101520  45.9814 136.9997  2.00562052 69911
1 37753U 11036A   21033.42601235 -.00000039  00000-0  00000-0 0  9991
2 37753  56.3311  48.2357 0101590  45.9809 315.6960  2.00562038 69951
1 37753U 11036A   21034.66432738 -.00000041  00000-0  00000-0 0  9991
2 37753  56.3320  48.1871 0101646  45.9820 129.8095  2.00562038 69972
1 37753U 11036A   21035.66229875 -.00000042  00000-0  00000-0 0  9999
2 37753  56.3327  48.1478 0101689  45.9858 130.3820  2.00562044 69992
1 37753U 11036A   21037.91218778 -.00000043  00000-0  00000+0 0  9999
2 37753  56.3343  48.0595 0101785  45.9940 314.8862  2.00562082 70032
1 37753U 11036A   21037.91218778 -.00000043  00000-0  00000-0 0  9990
2 37753  56.3343  48.0595 0101785  45.9940 314.8862  2.00562082 70032
1 37753U 11036A   21040.15539314 -.00000048  00000-0  00000+0 0  9996
2 37753  56.3361  47.9715 0101934  45.9777 134.5895  2.00562148 70078
1 37753U 11036A   21040.15539314 -.00000048  00000-0  00000-0 0  9997
2 37753  56.3361  47.9715 0101934  45.9777 134.5895  2.00562148 70089
1 37753U 11036A   21042.39836962 -.00000058  00000-0  00000-0 0  9995
2 37753  56.3377  47.8834 0102048  45.9770 314.1120  2.00562230 70121
1 37753U 11036A   21044.64167854 -.00000065  00000-0  00000+0 0  9999
2 37753  56.3394  47.7955 0102157  45.9858 133.8654  2.00562317 70169
1 37753U 11036A   21044.64167854 -.00000065  00000-0  00000-0 0  9990
2 37753  56.3394  47.7955 0102157  45.9858 133.8654  2.00562317 70170
1 37753U 11036A   21045.14493675 -.00000066  00000-0  00000-0 0  9990
2 37753  56.3397  47.7758 0102210  45.9740 137.2505  2.00562334 70187
1 37753U 11036A   21046.14181126 -.00000065  00000-0  00000-0 0  9995
2 37753  56.3404  47.7367 0102237  45.9898 137.0197  2.00562368 70200
1 37753U 11036A   21047.63069125 -.00000061  00000-0  00000-0 0  9990
2 37753  56.3413  47.6783 0102314  45.9941 132.0488  2.00562406 70230
1 37753U 11036A   21048.61624549 -.00000056  00000-0  00000-0 0  9990
2 37753  56.3414  47.6396 0102368  45.9942 123.6601  2.00562424 70256
1 37753U 11036A   21049.37688360 -.00000051  00000-0  00000-0 0  9990
2 37753  56.3423  47.6098 0102398  45.9965 312.8702  2.00562432 70267
